[{"OBJECT_NAME":"STARLINK-31179","OBJECT_ID":"2024-005Y","EPOCH":"2026-03-09T19:25:42.648960","MEAN_MOTION":15.26735865,"ECCENTRICITY":7.174e-5,"INCLINATION":43.0036,"RA_OF_ASC_NODE":218.9351,"ARG_OF_PERICENTER":263.6598,"MEAN_ANOMALY":96.4172,"EPHEMERIS_TYPE":0,"CLASSIFICATION_TYPE":"U","NORAD_CAT_ID":58750,"ELEMENT_SET_NO":999,"REV_AT_EPOCH":12046,"BSTAR":5.5251005e-5,"MEAN_MOTION_DOT":1.223e-5,"MEAN_MOTION_DDOT":0},{"OBJECT_NAME":"LIME","OBJECT_ID":"2025-009AR","EPOCH":"2026-03-09T17:44:15.459648","MEAN_MOTION":15.28703313,"ECCENTRICITY":0.00016347,"INCLINATION":97.3985,"RA_OF_ASC_NODE":151.4831,"ARG_OF_PERICENTER":35.9029,"MEAN_ANOMALY":324.232,"EPHEMERIS_TYPE":0,"CLASSIFICATION_TYPE":"U","NORAD_CAT_ID":62648,"ELEMENT_SET_NO":999,"REV_AT_EPOCH":6376,"BSTAR":0.00047722827,"MEAN_MOTION_DOT":0.00013254,"MEAN_MOTION_DDOT":0}]
